COSMOS 2251 DEB         
1 35968U 93036AVJ 17345.12678905  .00001462  00000-0  17193-3 0  9997
2 35968  73.7077 147.0469 0088597 179.8884 180.2329 14.83210375465449
